NORAD_CAT_ID,OBJECT_NAME,OBJECT_TYPE,EPOCH,MEAN_MOTION,ECCENTRICITY,INCLINATION,RA_OF_ASC_NODE,ARG_OF_PERICENTER,MEAN_ANOMALY,BSTAR,MEAN_MOTION_DOT,MEAN_MOTION_DDOT,TLE_LINE0,TLE_LINE1,TLE_LINE2,SEMIMAJOR_AXIS,PERIOD,APOGEE,PERIGEE,DECAYED
51958.0,STARLINK-3692,PAYLOAD,2023-03-29 11:44:53,15.08063417,8.72e-05,53.1895,180.4762,95.6935,264.4156,0.0023837,0.00037051,0.0,0 STARLINK-3692,1 51958U 22025C   23088.48950593  .00037051  00000-0  23837-2 0  9994,2 51958  53.1895 180.4762 0000872  95.6935 264.4156 15.08063417 58728,6920.255,95.487,542.724,541.517,0.0
51958.0,STARLINK-3692,PAYLOAD,2023-03-29 16:31:11,15.08072031,8.67e-05,53.1894,179.584,83.2025,276.9065,0.0025651,0.00039918,0.0,0 STARLINK-3692,1 51958U 22025C   23088.68832914  .00039918  00000-0  25651-2 0  9992,2 51958  53.1894 179.5840 0000867  83.2025 276.9065 15.08072031 58752,6920.229,95.486,542.694,541.494,0.0
51958.0,STARLINK-3692,PAYLOAD,2023-03-29 22:52:56,15.0803967,8.52e-05,53.1895,178.397,102.0077,258.101,0.00093433,0.00014293,0.0,0 STARLINK-3692,1 51958U 22025C   23088.95343273  .00014293  00000-0  93433-3 0  9990,2 51958  53.1895 178.3970 0000852 102.0077 258.1010 15.08039670 59884,6920.328,95.488,542.782,541.603,0.0
51958.0,STARLINK-3692,PAYLOAD,2023-03-30 11:36:26,15.08033515,0.0001491,53.1883,176.0174,79.0764,281.0395,0.0011327,0.00017393,0.0,0 STARLINK-3692,1 51958U 22025C   23089.48364121  .00017393  00000-0  11327-2 0  9999,2 51958  53.1883 176.0174 0001491  79.0764 281.0395 15.08033515 59960,6920.347,95.489,543.243,541.18,0.0
51958.0,STARLINK-3692,PAYLOAD,2023-03-30 17:58:10,15.0806444,0.0001278,53.1877,174.8264,87.2506,272.8632,0.00177,0.00027401,0.0,0 STARLINK-3692,1 51958U 22025C   23089.74873647  .00027401  00000-0  17700-2 0  9998,2 51958  53.1877 174.8264 0001278  87.2506 272.8632 15.08064440 60007,6920.252,95.487,543.001,541.233,0.0
51958.0,STARLINK-3692,PAYLOAD,2023-03-31 05:06:14,15.08061065,8.22e-05,53.1872,172.7459,79.9845,280.1239,0.0021356,0.00033144,0.0,0 STARLINK-3692,1 51958U 22025C   23090.21266307  .00033144  00000-0  21356-2 0  9994,2 51958  53.1872 172.7459 0000822  79.9845 280.1239 15.08061065 60075,6920.262,95.487,542.696,541.558,0.0
51958.0,STARLINK-3692,PAYLOAD,2023-04-01 04:57:46,15.08032291,0.0002351,53.1866,168.2859,81.5358,278.59,0.00044479,6.645e-05,0.0,0 STARLINK-3692,1 51958U 22025C   23091.20679371  .00006645  00000-0  44479-3 0  9991,2 51958  53.1866 168.2859 0002351  81.5358 278.5900 15.08032291 60221,6920.35,95.489,543.842,540.588,0.0
51958.0,STARLINK-3692,PAYLOAD,2023-04-01 14:30:24,15.08032665,0.0001428,53.186,166.5014,81.7186,278.3968,0.0023326,0.00036216,0.0,0 STARLINK-3692,1 51958U 22025C   23091.60444998  .00036216  00000-0  23326-2 0  9994,2 51958  53.1860 166.5014 0001428  81.7186 278.3968 15.08032665 59195,6920.349,95.489,543.202,541.226,0.0
51958.0,STARLINK-3692,PAYLOAD,2023-04-01 22:27:35,15.08043004,0.0001608,53.1854,165.0152,79.7889,280.3284,0.0018671,0.0002891,0.0,0 STARLINK-3692,1 51958U 22025C   23091.93582760  .00028910  00000-0  18671-2 0  9999,2 51958  53.1854 165.0152 0001608  79.7889 280.3284 15.08043004 59241,6920.318,95.488,543.295,541.07,0.0
51958.0,STARLINK-3692,PAYLOAD,2023-04-02 11:11:04,15.08072545,0.0001513,53.1848,162.6352,83.004,277.1124,0.001851,0.0002868,0.0,0 STARLINK-3692,1 51958U 22025C   23092.46602063  .00028680  00000-0  18510-2 0  9993,2 51958  53.1848 162.6352 0001513  83.0040 277.1124 15.08072545 60411,6920.227,95.486,543.139,541.045,0.0
51958.0,STARLINK-3692,PAYLOAD,2023-04-02 15:57:22,15.08088849,0.0001541,53.1845,161.7434,81.3245,278.792,0.002036,0.00031603,0.0,0 STARLINK-3692,1 51958U 22025C   23092.66483951  .00031603  00000-0  20360-2 0  9993,2 51958  53.1845 161.7434 0001541  81.3245 278.7920 15.08088849 59354,6920.177,95.485,543.109,540.976,0.0
51958.0,STARLINK-3692,PAYLOAD,2023-04-03 11:02:36,15.08045926,0.0001347,53.1839,158.1749,91.8179,268.2967,0.0012171,0.0001872,0.0,0 STARLINK-3692,1 51958U 22025C   23093.46014248  .00018720  00000-0  12171-2 0  9997,2 51958  53.1839 158.1749 0001347  91.8179 268.2967 15.08045926 60561,6920.309,95.488,543.106,541.241,0.0
51958.0,STARLINK-3692,PAYLOAD,2023-04-03 14:13:28,15.08047652,0.0001417,53.184,157.5796,91.7653,268.3501,0.0011442,0.0001758,0.0,0 STARLINK-3692,1 51958U 22025C   23093.59269213  .00017580  00000-0  11442-2 0  9998,2 51958  53.1840 157.5796 0001417  91.7653 268.3501 15.08047652 59495,6920.303,95.488,543.149,541.188,0.0
51958.0,STARLINK-3692,PAYLOAD,2023-04-03 20:35:12,15.08049333,0.0001288,53.184,156.3888,94.0575,266.0563,0.00078328,0.00011935,0.0,0 STARLINK-3692,1 51958U 22025C   23093.85778711  .00011935  00000-0  78328-3 0  9990,2 51958  53.1840 156.3888 0001288  94.0575 266.0563 15.08049333 59535,6920.298,95.488,543.055,541.272,0.0
51958.0,STARLINK-3692,PAYLOAD,2023-04-04 06:07:50,15.08059215,0.0001409,53.1828,154.6066,89.6968,270.4184,0.0019943,0.00030921,0.0,0 STARLINK-3692,1 51958U 22025C   23094.25544030  .00030921  00000-0  19943-2 0  9993,2 51958  53.1828 154.6066 0001409  89.6968 270.4184 15.08059215 60687,6920.268,95.487,543.108,541.158,0.0
51958.0,STARLINK-3692,PAYLOAD,2023-04-04 09:18:42,15.08064162,0.0001415,53.182,154.0117,81.4164,278.6988,0.0019721,0.00030577,0.0,0 STARLINK-3692,1 51958U 22025C   23094.38798846  .00030577  00000-0  19721-2 0  9994,2 51958  53.1820 154.0117 0001415  81.4164 278.6988 15.08064162 59615,6920.253,95.487,543.097,541.139,0.0
51958.0,STARLINK-3692,PAYLOAD,2023-04-04 14:05:00,15.08073714,0.0001401,53.1813,153.1202,73.5038,286.6107,0.0013427,0.00020703,0.0,0 STARLINK-3692,1 51958U 22025C   23094.58680891  .00020703  00000-0  13427-2 0  9993,2 51958  53.1813 153.1202 0001401  73.5038 286.6107 15.08073714 59647,6920.224,95.486,543.058,541.119,0.0
51958.0,STARLINK-3692,PAYLOAD,2023-04-05 02:48:30,15.08027518,0.0001284,53.1828,150.74,111.3425,248.7704,0.00025865,3.743e-05,0.0,0 STARLINK-3692,1 51958U 22025C   23095.11701482  .00003743  00000-0  25865-3 0  9998,2 51958  53.1828 150.7400 0001284 111.3425 248.7704 15.08027518 60810,6920.365,95.489,543.119,541.341,0.0
51958.0,STARLINK-3692,PAYLOAD,2023-04-05 12:21:07,15.08034623,0.0001437,53.18,148.9554,84.0001,276.1154,5.8454e-05,6.24e-06,0.0,0 STARLINK-3692,1 51958U 22025C   23095.51466697  .00000624  00000-0  58454-4 0  9994,2 51958  53.1800 148.9554 0001437  84.0001 276.1154 15.08034623 59788,6920.343,95.489,543.203,541.214,0.0
51958.0,STARLINK-3692,PAYLOAD,2023-04-05 20:18:18,15.08038749,0.00014,53.18,147.4682,84.6835,275.4316,0.00039667,5.896e-05,0.0,0 STARLINK-3692,1 51958U 22025C   23095.84604336  .00005896  00000-0  39667-3 0  9994,2 51958  53.1800 147.4682 0001400  84.6835 275.4316 15.08038749 59836,6920.331,95.488,543.164,541.227,0.0
51958.0,STARLINK-3692,PAYLOAD,2023-04-06 09:01:47,15.08057659,0.0001507,53.1782,145.0886,89.9751,270.1413,0.00089527,0.00013689,0.0,0 STARLINK-3692,1 51958U 22025C   23096.37623987  .00013689  00000-0  89527-3 0  9995,2 51958  53.1782 145.0886 0001507  89.9751 270.1413 15.08057659 61001,6920.273,95.487,543.181,541.095,0.0
51958.0,STARLINK-3692,PAYLOAD,2023-04-06 12:12:39,15.08062512,0.0001489,53.1778,144.4936,87.9961,272.12,0.00092781,0.000142,0.0,0 STARLINK-3692,1 51958U 22025C   23096.50878779  .00014200  00000-0  92781-3 0  9997,2 51958  53.1778 144.4936 0001489  87.9961 272.1200 15.08062512 59934,6920.258,95.487,543.153,541.092,0.0
51958.0,STARLINK-3692,PAYLOAD,2023-04-07 07:17:53,15.0805465,0.0001552,53.1773,140.9247,103.1915,256.925,0.00049573,7.445e-05,0.0,0 STARLINK-3692,1 51958U 22025C   23097.30408626  .00007445  00000-0  49573-3 0  9990,2 51958  53.1773 140.9247 0001552 103.1915 256.9250 15.08054650 61141,6920.282,95.487,543.221,541.073,0.0
51958.0,STARLINK-3692,PAYLOAD,2023-04-07 12:04:11,15.08051222,0.0001498,53.1761,140.0308,99.9655,260.1505,0.0004415,6.598e-05,0.0,0 STARLINK-3692,1 51958U 22025C   23097.50291101  .00006598  00000-0  44150-3 0  9994,2 51958  53.1761 140.0308 0001498  99.9655 260.1505 15.08051222 60083,6920.292,95.487,543.194,541.121,0.0
51958.0,STARLINK-3692,PAYLOAD,2023-04-07 20:01:22,15.08042282,0.0001631,53.1746,138.5459,74.4609,285.6562,0.00020148,2.853e-05,0.0,0 STARLINK-3692,1 51958U 22025C   23097.83428874  .00002853  00000-0  20148-3 0  9990,2 51958  53.1746 138.5459 0001631  74.4609 285.6562 15.08042282 61229,6920.32,95.488,543.313,541.056,0.0
51958.0,STARLINK-3692,PAYLOAD,2023-04-08 08:44:51,15.08047474,0.0001631,53.1748,136.1651,77.1369,282.9805,0.00012734,1.698e-05,0.0,0 STARLINK-3692,1 51958U 22025C   23098.36448672  .00001698  00000-0  12734-3 0  9995,2 51958  53.1748 136.1651 0001631  77.1369 282.9805 15.08047474 60218,6920.304,95.488,543.298,541.04,0.0
51958.0,STARLINK-3692,PAYLOAD,2023-04-09 02:14:39,15.08044704,0.0001649,53.1738,132.8937,75.2205,284.8969,0.00016274,2.249e-05,0.0,0 STARLINK-3692,1 51958U 22025C   23099.09351236  .00002249  00000-0  16274-3 0  9991,2 51958  53.1738 132.8937 0001649  75.2205 284.8969 15.08044704 61412,6920.312,95.488,543.319,541.036,0.0
51958.0,STARLINK-3692,PAYLOAD,2023-04-09 08:36:23,15.08045608,0.000162,53.1738,131.7036,76.3753,283.7419,0.00013683,1.846e-05,0.0,0 STARLINK-3692,1 51958U 22025C   23099.35861108  .00001846  00000-0  13683-3 0  9997,2 51958  53.1738 131.7036 0001620  76.3753 283.7419 15.08045608 60364,6920.31,95.488,543.296,541.054,0.0
51958.0,STARLINK-3692,PAYLOAD,2023-04-09 13:22:42,15.0804849,0.0001599,53.1736,130.8109,77.3284,282.7886,0.00016554,2.293e-05,0.0,0 STARLINK-3692,1 51958U 22025C   23099.55743382  .00002293  00000-0  16554-3 0  9999,2 51958  53.1736 130.8109 0001599  77.3284 282.7886 15.08048490 60390,6920.301,95.488,543.272,541.059,0.0
51958.0,STARLINK-3692,PAYLOAD,2023-04-10 05:17:04,15.08039349,0.0001714,53.1735,127.8357,80.1217,279.9968,1.4328e-05,-6.3e-07,0.0,0 STARLINK-3692,1 51958U 22025C   23100.22018819 -.00000063  00000-0  14328-4 0  9998,2 51958  53.1735 127.8357 0001714  80.1217 279.9968 15.08039349 61581,6920.329,95.488,543.38,541.008,0.0
